{
    "links": {
        "self": "http://www.neowsapp.com/rest/v1/neo/3611411?api_key=iIulBulltgU6a56xZRHN4H3l9WmuAYTsLGpBGhQ2"
    },
    "id": "3611411",
    "neo_reference_id": "3611411",
    "name": "(2012 UH)",
    "designation": "2012 UH",
    "nasa_jpl_url": "http://ssd.jpl.nasa.gov/sbdb.cgi?sstr=3611411",
    "absolute_magnitude_h": 26.6,
    "estimated_diameter": {
        "kilometers": {
            "estimated_diameter_min": 0.0127219879,
            "estimated_diameter_max": 0.0284472297
        },
        "meters": {
            "estimated_diameter_min": 12.7219878539,
            "estimated_diameter_max": 28.4472296503
        },
        "miles": {
            "estimated_diameter_min": 0.0079050743,
            "estimated_diameter_max": 0.0176762835
        },
        "feet": {
            "estimated_diameter_min": 41.7388066307,
            "estimated_diameter_max": 93.330808926
        }
    },
    "is_potentially_hazardous_asteroid": false,
    "close_approach_data": [
        {
            "close_approach_date": "1924-09-02",
            "close_approach_date_full": "1924-Sep-02 04:44",
            "epoch_date_close_approach": -1430507760000,
            "relative_velocity": {
                "kilometers_per_second": "13.0682138926",
                "kilometers_per_hour": "47045.5700133406",
                "miles_per_hour": "29232.2876563449"
            },
            "miss_distance": {
                "astronomical": "0.2529781405",
                "lunar": "98.4084966545",
                "kilometers": "37844990.975360735",
                "miles": "23515786.950558743"
            },
            "orbiting_body": "Earth"
        },
        {
            "close_approach_date": "2012-10-13",
            "close_approach_date_full": "2012-Oct-13 05:47",
            "epoch_date_close_approach": 1350107220000,
            "relative_velocity": {
                "kilometers_per_second": "7.6499835829",
                "kilometers_per_hour": "27539.9408985826",
                "miles_per_hour": "17112.2482766776"
            },
            "miss_distance": {
                "astronomical": "0.0513931497",
                "lunar": "19.9919352333",
                "kilometers": "7688305.727711139",
                "miles": "4777291.6532421582"
            },
            "orbiting_body": "Earth"
        }
    ],
    "orbital_data": {
        "orbit_id": "5",
        "orbit_determination_date": "2019-07-16 06:14:59",
        "first_observation_date": "2012-10-15",
        "last_observation_date": "2012-10-17",
        "data_arc_in_days": 2,
        "observations_used": 26,
        "orbit_uncertainty": "8",
        "minimum_orbit_intersection": ".0498609",
        "jupiter_tisserand_invariant": "3.408",
        "epoch_osculation": "2456216.5",
        "eccentricity": ".5357238243579644",
        "semi_major_axis": "2.256667959137602",
        "inclination": "7.501081374779096",
        "ascending_node_longitude": "200.7034578856953",
        "orbital_period": "1238.226005495737",
        "perihelion_distance": "1.047717169762323",
        "perihelion_argument": "176.3065507427882",
        "aphelion_distance": "3.46561874851288",
        "perihelion_time": "2456211.490439133891",
        "mean_anomaly": "1.456472327180055",
        "mean_motion": ".2907385230177509",
        "equinox": "J2000",
        "orbit_class": {
            "orbit_class_type": "AMO",
            "orbit_class_description": "Near-Earth asteroid orbits similar to that of 1221 Amor",
            "orbit_class_range": "1.017 AU < q (perihelion) < 1.3 AU"
        }
    },
    "is_sentry_object": false
}